[{"OBJECT_NAME":"ONEWEB-0213","OBJECT_ID":"2021-045Z","EPOCH":"2026-03-09T19:49:21.942624","MEAN_MOTION":13.15548944,"ECCENTRICITY":0.00016514,"INCLINATION":87.8948,"RA_OF_ASC_NODE":279.0263,"ARG_OF_PERICENTER":100.3738,"MEAN_ANOMALY":259.7578,"EPHEMERIS_TYPE":0,"CLASSIFICATION_TYPE":"U","NORAD_CAT_ID":48790,"ELEMENT_SET_NO":999,"REV_AT_EPOCH":23137,"BSTAR":-1.66796e-5,"MEAN_MOTION_DOT":7.0e-8,"MEAN_MOTION_DDOT":0},{"OBJECT_NAME":"OPS 4682 DEB","OBJECT_ID":"1965-027C","EPOCH":"2026-03-09T22:01:35.411808","MEAN_MOTION":13.22363751,"ECCENTRICITY":0.00362446,"INCLINATION":90.2606,"RA_OF_ASC_NODE":25.0203,"ARG_OF_PERICENTER":89.1257,"MEAN_ANOMALY":271.4031,"EPHEMERIS_TYPE":0,"CLASSIFICATION_TYPE":"U","NORAD_CAT_ID":1316,"ELEMENT_SET_NO":999,"REV_AT_EPOCH":90588,"BSTAR":0.0024977229,"MEAN_MOTION_DOT":1.052e-5,"MEAN_MOTION_DDOT":0}]
